start=new Date('2022-09-28T00:00:00.000Z').valueOf();
sats=[{"LAUNCH_DATE":"2020-10-18","CLASSIFICATION_TYPE":"U","INCLINATION":"53.0543","RCS_SIZE":"LARGE","APOAPSIS":"548.245","SEMIMAJOR_AXIS":"6925.347","REV_AT_EPOCH":"10766","FILE":"3585280","DECAY_DATE":null,"MEAN_ELEMENT_THEORY":"SGP4","EPHEMERIS_TYPE":"0","OBJECT_ID":"2020-073AC","OBJECT_NAME":"STARLINK-1795","TIME_SYSTEM":"UTC","OBJECT_TYPE":"PAYLOAD","ARG_OF_PERICENTER":"85.9663","MEAN_MOTION":"15.06400471","COUNTRY_CODE":"US","MEAN_MOTION_DOT":"0.00001418","BSTAR":"0.00011409000000","PERIOD":"95.592","REF_FRAME":"TEME","CENTER_NAME":"EARTH","MEAN_ANOMALY":"274.1497","ELEMENT_SET_NO":"999","MEAN_MOTION_DDOT":"0.0000000000000","PERIAPSIS":"546.179","ECCENTRICITY":"0.00014920","RA_OF_ASC_NODE":"113.0171","TLE_LINE1":"1 46696U 20073AC  22270.79679829  .00001418  00000-0  11409-3 0  9995","TLE_LINE2":"2 46696  53.0543 113.0171 0001492  85.9663 274.1497 15.06400471107662","SITE":"AFETR","GP_ID":"213663368","EPOCH":"2022-09-27T19:07:23.372256","NORAD_CAT_ID":"46696"},{"DECAY_DATE":null,"MEAN_ELEMENT_THEORY":"SGP4","EPHEMERIS_TYPE":"0","OBJECT_ID":"2020-073AE","ARG_OF_PERICENTER":"95.7533","OBJECT_TYPE":"PAYLOAD","TIME_SYSTEM":"UTC","OBJECT_NAME":"STARLINK-1797","LAUNCH_DATE":"2020-10-18","CLASSIFICATION_TYPE":"U","REV_AT_EPOCH":"10783","APOAPSIS":"548.395","SEMIMAJOR_AXIS":"6925.404","RCS_SIZE":"LARGE","INCLINATION":"53.0532","FILE":"3585231","RA_OF_ASC_NODE":"133.3413","ECCENTRICITY":"0.00016250","PERIAPSIS":"546.144","MEAN_MOTION_DDOT":"0.0000000000000","TLE_LINE2":"2 46698  53.0532 133.3413 0001625  95.7533 264.3641 15.06381803107837","TLE_LINE1":"1 46698U 20073AE  22270.72030380  .00017476  00000-0  11898-2 0  9995","EPOCH":"2022-09-27T17:17:14.248320","GP_ID":"213643604","SITE":"AFETR","NORAD_CAT_ID":"46698","MEAN_MOTION":"15.06381803","COUNTRY_CODE":"US","PERIOD":"95.593","BSTAR":"0.00118980000000","MEAN_MOTION_DOT":"0.00017476","ELEMENT_SET_NO":"999","CENTER_NAME":"EARTH","MEAN_ANOMALY":"264.3641","REF_FRAME":"TEME"},{"ECCENTRICITY":"0.00011240","RA_OF_ASC_NODE":"136.9084","PERIAPSIS":"546.454","MEAN_MOTION_DDOT":"0.0000000000000","TLE_LINE2":"2 46699  53.0538 136.9084 0001124  89.2388 270.8730 15.06393706107697","TLE_LINE1":"1 46699U 20073AF  22269.92876029 -.00000869  00000-0 -39446-4 0  9995","SITE":"AFETR","GP_ID":"213605450","EPOCH":"2022-09-26T22:17:24.889056","NORAD_CAT_ID":"46699","MEAN_MOTION":"15.06393706","COUNTRY_CODE":"US","MEAN_MOTION_DOT":"-0.00000869","BSTAR":"-0.00003944600000","PERIOD":"95.593","ELEMENT_SET_NO":"999","REF_FRAME":"TEME","MEAN_ANOMALY":"270.8730","CENTER_NAME":"EARTH","MEAN_ELEMENT_THEORY":"SGP4","DECAY_DATE":null,"EPHEMERIS_TYPE":"0","OBJECT_ID":"2020-073AF","OBJECT_TYPE":"PAYLOAD","TIME_SYSTEM":"UTC","ARG_OF_PERICENTER":"89.2388","OBJECT_NAME":"STARLINK-1799","LAUNCH_DATE":"2020-10-18","CLASSIFICATION_TYPE":"U","SEMIMAJOR_AXIS":"6925.368","APOAPSIS":"548.011","REV_AT_EPOCH":"10769","RCS_SIZE":"LARGE","INCLINATION":"53.0538","FILE":"3584681"},{"PERIOD":"95.592","BSTAR":"0.00017831000000","MEAN_MOTION_DOT":"0.00002376","CENTER_NAME":"EARTH","MEAN_ANOMALY":"280.0035","REF_FRAME":"TEME","ELEMENT_SET_NO":"999","MEAN_MOTION":"15.06401701","COUNTRY_CODE":"US","EPOCH":"2022-09-27T22:16:28.071552","GP_ID":"213664613","SITE":"AFETR","NORAD_CAT_ID":"46700","PERIAPSIS":"546.301","MEAN_MOTION_DDOT":"0.0000000000000","ECCENTRICITY":"0.00013100","RA_OF_ASC_NODE":"147.4322","TLE_LINE1":"1 46700U 20073AG  22270.92810268  .00002376  00000-0  17831-3 0  9999","TLE_LINE2":"2 46700  53.0552 147.4322 0001310  80.1102 280.0035 15.06401701107190","INCLINATION":"53.0552","RCS_SIZE":"LARGE","REV_AT_EPOCH":"10719","SEMIMAJOR_AXIS":"6925.343","APOAPSIS":"548.116","FILE":"3585280","LAUNCH_DATE":"2020-10-18","CLASSIFICATION_TYPE":"U","EPHEMERIS_TYPE":"0","OBJECT_ID":"2020-073AG","OBJECT_NAME":"STARLINK-1800","ARG_OF_PERICENTER":"80.1102","OBJECT_TYPE":"PAYLOAD","TIME_SYSTEM":"UTC","MEAN_ELEMENT_THEORY":"SGP4","DECAY_DATE":null},{"ARG_OF_PERICENTER":"92.0917","TIME_SYSTEM":"UTC","OBJECT_TYPE":"PAYLOAD","OBJECT_NAME":"STARLINK-1801","EPHEMERIS_TYPE":"0","OBJECT_ID":"2020-073AH","MEAN_ELEMENT_THEORY":"SGP4","DECAY_DATE":null,"FILE":"3585280","REV_AT_EPOCH":"10740","APOAPSIS":"548.384","SEMIMAJOR_AXIS":"6925.356","RCS_SIZE":"LARGE","INCLINATION":"53.0565","CLASSIFICATION_TYPE":"U","LAUNCH_DATE":"2020-10-18","NORAD_CAT_ID":"46701","EPOCH":"2022-09-27T21:28:02.308224","GP_ID":"213662870","SITE":"AFETR","TLE_LINE2":"2 46701  53.0565 132.5835 0001680  92.0917 268.0264 15.06397696107406","TLE_LINE1":"1 46701U 20073AH  22270.89447116  .00000838  00000-0  75126-4 0  9997","RA_OF_ASC_NODE":"132.5835","ECCENTRICITY":"0.00016800","PERIAPSIS":"546.057","MEAN_MOTION_DDOT":"0.0000000000000","ELEMENT_SET_NO":"999","MEAN_ANOMALY":"268.0264","CENTER_NAME":"EARTH","REF_FRAME":"TEME","PERIOD":"95.592","BSTAR":"0.00007512600000","MEAN_MOTION_DOT":"0.00000838","COUNTRY_CODE":"US","MEAN_MOTION":"15.06397696"},{"MEAN_ELEMENT_THEORY":"SGP4","DECAY_DATE":null,"EPHEMERIS_TYPE":"0","OBJECT_ID":"2020-073AJ","TIME_SYSTEM":"UTC","OBJECT_TYPE":"PAYLOAD","ARG_OF_PERICENTER":"84.7941","OBJECT_NAME":"STARLINK-1802","LAUNCH_DATE":"2020-10-18","CLASSIFICATION_TYPE":"U","APOAPSIS":"548.270","SEMIMAJOR_AXIS":"6925.394","REV_AT_EPOCH":"10764","INCLINATION":"53.0532","RCS_SIZE":"LARGE","FILE":"3585280","ECCENTRICITY":"0.00014600","RA_OF_ASC_NODE":"113.7091","PERIAPSIS":"546.248","MEAN_MOTION_DDOT":"0.0000000000000","TLE_LINE2":"2 46702  53.0532 113.7091 0001460  84.7941 275.3214 15.06385058107648","TLE_LINE1":"1 46702U 20073AJ  22270.64200203  .00000343  00000-0  41922-4 0  9993","SITE":"AFETR","EPOCH":"2022-09-27T15:24:28.975392","GP_ID":"213664119","NORAD_CAT_ID":"46702","MEAN_MOTION":"15.06385058","COUNTRY_CODE":"US","BSTAR":"0.00004192200000","MEAN_MOTION_DOT":"0.00000343","PERIOD":"95.593","ELEMENT_SET_NO":"999","REF_FRAME":"TEME","MEAN_ANOMALY":"275.3214","CENTER_NAME":"EARTH"},{"OBJECT_NAME":"STARLINK-1803","ARG_OF_PERICENTER":"87.1581","OBJECT_TYPE":"PAYLOAD","TIME_SYSTEM":"UTC","EPHEMERIS_TYPE":"0","OBJECT_ID":"2020-073AK","MEAN_ELEMENT_THEORY":"SGP4","DECAY_DATE":null,"FILE":"3585194","RCS_SIZE":"LARGE","INCLINATION":"53.0541","REV_AT_EPOCH":"10785","APOAPSIS":"547.873","SEMIMAJOR_AXIS":"6925.403","CLASSIFICATION_TYPE":"U","LAUNCH_DATE":"2020-10-18","NORAD_CAT_ID":"46703","GP_ID":"213642326","EPOCH":"2022-09-27T17:45:07.542432","SITE":"AFETR","TLE_LINE1":"1 46703U 20073AK  22270.73967063  .00002658  00000-0  19735-3 0  9995","TLE_LINE2":"2 46703  53.0541 133.2574 0000873  87.1581 272.9508 15.06382262107852","PERIAPSIS":"546.663","MEAN_MOTION_DDOT":"0.0000000000000","RA_OF_ASC_NODE":"133.2574","ECCENTRICITY":"0.00008730","CENTER_NAME":"EARTH","MEAN_ANOMALY":"272.9508","REF_FRAME":"TEME","ELEMENT_SET_NO":"999","PERIOD":"95.593","BSTAR":"0.00019735000000","MEAN_MOTION_DOT":"0.00002658","COUNTRY_CODE":"US","MEAN_MOTION":"15.06382262"},{"OBJECT_NAME":"STARLINK-1804","ARG_OF_PERICENTER":"81.3903","OBJECT_TYPE":"PAYLOAD","TIME_SYSTEM":"UTC","EPHEMERIS_TYPE":"0","OBJECT_ID":"2020-073AL","MEAN_ELEMENT_THEORY":"SGP4","DECAY_DATE":null,"FILE":"3585280","RCS_SIZE":"LARGE","INCLINATION":"53.0546","REV_AT_EPOCH":"10766","SEMIMAJOR_AXIS":"6925.373","APOAPSIS":"548.223","CLASSIFICATION_TYPE":"U","LAUNCH_DATE":"2020-10-18","NORAD_CAT_ID":"46704","GP_ID":"213664615","EPOCH":"2022-09-27T18:51:28.310112","SITE":"AFETR","TLE_LINE1":"1 46704U 20073AL  22270.78574433 -.00000229  00000-0  35349-5 0  9990","TLE_LINE2":"2 46704  53.0546 113.0648 0001422  81.3903 278.7247 15.06391981107662","MEAN_MOTION_DDOT":"0.0000000000000","PERIAPSIS":"546.253","ECCENTRICITY":"0.00014220","RA_OF_ASC_NODE":"113.0648","MEAN_ANOMALY":"278.7247","CENTER_NAME":"EARTH","REF_FRAME":"TEME","ELEMENT_SET_NO":"999","PERIOD":"95.593","BSTAR":"0.00000353490000","MEAN_MOTION_DOT":"-0.00000229","COUNTRY_CODE":"US","MEAN_MOTION":"15.06391981"},{"SEMIMAJOR_AXIS":"6925.366","APOAPSIS":"548.167","REV_AT_EPOCH":"10719","INCLINATION":"53.0552","RCS_SIZE":"LARGE","FILE":"3585280","LAUNCH_DATE":"2020-10-18","CLASSIFICATION_TYPE":"U","EPHEMERIS_TYPE":"0","OBJECT_ID":"2020-073AM","TIME_SYSTEM":"UTC","OBJECT_TYPE":"PAYLOAD","ARG_OF_PERICENTER":"81.5295","OBJECT_NAME":"STARLINK-1805","DECAY_DATE":null,"MEAN_ELEMENT_THEORY":"SGP4","MEAN_MOTION_DOT":"0.00001712","BSTAR":"0.00013382000000","PERIOD":"95.593","ELEMENT_SET_NO":"999","REF_FRAME":"TEME","MEAN_ANOMALY":"278.5847","CENTER_NAME":"EARTH","MEAN_MOTION":"15.06394224","COUNTRY_CODE":"US","SITE":"AFETR","EPOCH":"2022-09-27T22:21:46.806336","GP_ID":"213663369","NORAD_CAT_ID":"46705","RA_OF_ASC_NODE":"147.3966","ECCENTRICITY":"0.00013510","PERIAPSIS":"546.296","MEAN_MOTION_DDOT":"0.0000000000000","TLE_LINE2":"2 46705  53.0552 147.3966 0001351  81.5295 278.5847 15.06394224107195","TLE_LINE1":"1 46705U 20073AM  22270.93179174  .00001712  00000-0  13382-3 0  9999"},{"CLASSIFICATION_TYPE":"U","LAUNCH_DATE":"2020-10-18","FILE":"3585280","RCS_SIZE":"LARGE","INCLINATION":"53.0550","REV_AT_EPOCH":"10739","APOAPSIS":"548.234","SEMIMAJOR_AXIS":"6925.328","DECAY_DATE":null,"MEAN_ELEMENT_THEORY":"SGP4","OBJECT_NAME":"STARLINK-1807","ARG_OF_PERICENTER":"80.8456","OBJECT_TYPE":"PAYLOAD","TIME_SYSTEM":"UTC","OBJECT_ID":"2020-073AN","EPHEMERIS_TYPE":"0","COUNTRY_CODE":"US","MEAN_MOTION":"15.06406808","CENTER_NAME":"EARTH","MEAN_ANOMALY":"279.2703","REF_FRAME":"TEME","ELEMENT_SET_NO":"999","PERIOD":"95.592","MEAN_MOTION_DOT":"0.00001195","BSTAR":"0.00009906800000","TLE_LINE1":"1 46706U 20073AN  22270.83918493  .00001195  00000-0  99068-4 0  9995","TLE_LINE2":"2 46706  53.0550 132.8306 0001504  80.8456 279.2703 15.06406808107395","MEAN_MOTION_DDOT":"0.0000000000000","PERIAPSIS":"546.151","RA_OF_ASC_NODE":"132.8306","ECCENTRICITY":"0.00015040","NORAD_CAT_ID":"46706","GP_ID":"213663621","EPOCH":"2022-09-27T20:08:25.577952","SITE":"AFETR"}];
